RASSVET-3 8             
1 68367U 26061H   26094.81383932  .00067106  42690-6  22691-3 0  9993
2 68367  82.2971  95.0070 0025882  29.2347 331.0366 15.89208553  1924
RASSVET-3 9             
1 68368U 26061J   26094.74937126  .00138261  55853-5  45213-3 0  9996
2 68368  82.2960  95.0755 0024972  29.9158 330.3535 15.89962470  1913
RASSVET-3 10            
1 68369U 26061K   26094.81349173  .00067951  46704-6  22927-3 0  9994
2 68369  82.2971  95.0066 0025725  29.2887 330.9820 15.89259602  1920
RASSVET-3 11            
1 68370U 26061L   26094.75019279  .00075664  85031-6  25518-3 0  9995
2 68370  82.2970  95.0772 0025478  29.4612 330.8088 15.89289604  1917
RASSVET-3 12            
1 68371U 26061M   26094.74990215  .00077799  96509-6  26158-3 0  9997
2 68371  82.2970  95.0769 0025445  29.4513 330.8186 15.89354026  1918
RASSVET-3 13            
1 68372U 26061N   26094.74973244  .00075857  86188-6  25516-3 0  9993
2 68372  82.2970  95.0765 0025230  29.2717 330.9961 15.89353342  1913
RASSVET-3 14            
1 68373U 26061P   26094.68631258  .00073755  75433-6  24719-3 0  9993
2 68373  82.2969  95.1474 0025207  29.2284 331.0392 15.89422871  1906
RASSVET-3 15            
1 68374U 26061Q   26094.74919301  .00076801  91374-6  25735-3 0  9995
2 68374  82.2969  95.0760 0024964  29.1246 331.1411 15.89441366  1914
RASSVET-3 16            
1 68375U 26061R   26094.80982046  .00084821  13862-5  27282-3 0  9994
2 68375  82.2958  95.0004 0024024  30.5602 329.7063 15.90295198  1922
SUPERVIEW NEO-2 OBJECT A
1 68377U 26062A   26094.86764942  .00004628  00000+0  21404-3 0  9997
2 68377  97.4368 103.2169 0006595 227.9983 132.0691 15.20626473  1512
SUPERVIEW NEO-2 OBJECT B
1 68378U 26062B   26090.72162118  .00004270  00000+0  19791-3 0  9995
2 68378  97.4347  99.1253 0008952 250.4427 109.5842 15.20585060   882
CZ-2D R/B               
1 68379U 26062C   26094.86441707  .00014358  00000+0  45817-3 0  9995
2 68379  97.4982 103.2485 0052606  27.2301 333.1680 15.31233329  1525
